NORAD_CAT_ID,OBJECT_NAME,OBJECT_TYPE,EPOCH,MEAN_MOTION,ECCENTRICITY,INCLINATION,RA_OF_ASC_NODE,ARG_OF_PERICENTER,MEAN_ANOMALY,BSTAR,MEAN_MOTION_DOT,MEAN_MOTION_DDOT,TLE_LINE0,TLE_LINE1,TLE_LINE2,SEMIMAJOR_AXIS,PERIOD,APOGEE,PERIGEE,DECAYED
53146.0,STARLINK-4099,PAYLOAD,2022-10-24 14:00:01,15.08799581,0.0002230999999999,53.2178,305.2563,31.6723,327.2731,2.2042e-05,6.2e-07,0.0,0 STARLINK-4099,1 53146U 22083Q   22297.58334491  .00000062  00000-0  22042-4 0  9995,2 53146  53.2178 305.2563 0002231  31.6723 327.2731 15.08799581  1303,6918.004,95.44,541.4119999999998,538.326,0.0
53146.0,STARLINK-4099,PAYLOAD,2022-10-24 22:00:00,15.08778329,0.0002018,53.218,303.7584,36.7281,333.7721,0.0036470999999999,0.00058137,0.0,0 STARLINK-4099,1 53146U 22083Q   22297.91667824  .00058137  00000-0  36471-2 0  9996,2 53146  53.2180 303.7584 0002018  36.7281 333.7721 15.08778329 15897,6918.069,95.441,541.33,538.538,0.0
53146.0,STARLINK-4099,PAYLOAD,2022-10-25 14:00:01,15.08824185,0.0002251,53.2177,300.7671,33.8231,359.7781,-0.00053952,-8.861e-05,0.0,0 STARLINK-4099,1 53146U 22083Q   22298.58334491 -.00008861  00000-0 -53952-3 0  9996,2 53146  53.2177 300.7671 0002251  33.8231 359.7781 15.08824185 15996,6917.929,95.439,541.351,538.237,0.0
53146.0,STARLINK-4099,PAYLOAD,2022-10-25 22:00:01,15.08801809,0.0002038,53.2177,299.2692,39.1261,6.1186,0.0033878999999999,0.00053988,0.0,0 STARLINK-4099,1 53146U 22083Q   22298.91668981  .00053988  00000-0  33879-2 0  9990,2 53146  53.2177 299.2692 0002038  39.1261   6.1186 15.08801809  1306,6917.996999999999,95.44,541.2719999999998,538.452,0.0
53146.0,STARLINK-4099,PAYLOAD,2022-10-26 14:00:01,15.08848934,0.0002276999999999,53.2174,296.2778,36.5782,31.7581,-0.00071149,-0.00011597,0.0,0 STARLINK-4099,1 53146U 22083Q   22299.58334491 -.00011597  00000-0 -71149-3 0  9995,2 53146  53.2174 296.2778 0002277  36.5782  31.7581 15.08848934 16140,6917.853,95.437,541.293,538.143,0.0
53146.0,STARLINK-4099,PAYLOAD,2022-10-26 22:00:00,15.08824014,0.0002109,53.2174,294.78,41.9129,38.025,0.0029029,0.00046195,0.0,0 STARLINK-4099,1 53146U 22083Q   22299.91667824  .00046195  00000-0  29029-2 0  9990,2 53146  53.2174 294.7800 0002109  41.9129  38.0250 15.08824014  1306,6917.929,95.439,541.253,538.335,0.0
53146.0,STARLINK-4099,PAYLOAD,2022-10-27 06:00:00,15.08861015,0.0002301,53.2175,293.2853,40.2771,51.264,-0.00051824,-8.532e-05,0.0,0 STARLINK-4099,1 53146U 22083Q   22300.25001157 -.00008532  00000-0 -51824-3 0  9995,2 53146  53.2175 293.2853 0002301  40.2771  51.2640 15.08861015 16249,6917.816,95.436,541.273,538.089,0.0
53146.0,STARLINK-4099,PAYLOAD,2022-10-27 14:00:01,15.08877566,0.0002307,53.2173,291.7884,38.7357,64.4797,-0.001161,-0.00018738,0.0,0 STARLINK-4099,1 53146U 22083Q   22300.58335648 -.00018738  00000-0 -11610-2 0  9993,2 53146  53.2173 291.7884 0002307  38.7357  64.4797 15.08877566  1300,6917.766,95.435,541.226,538.035,0.0
53146.0,STARLINK-4099,PAYLOAD,2022-10-27 22:00:00,15.08855854,0.000213,53.2174,290.2907,43.1393,71.65,0.00037847,5.743e-05,0.0,0 STARLINK-4099,1 53146U 22083Q   22300.91667824  .00005743  00000-0  37847-3 0  9995,2 53146  53.2174 290.2907 0002130  43.1393  71.6500 15.08855854  1303,6917.831999999999,95.437,541.17,538.2230000000002,0.0
53146.0,STARLINK-4099,PAYLOAD,2022-10-28 06:00:00,15.08872983,0.0002281,53.2175,288.796,39.4451,86.9674,-0.0021348,-0.00034135,0.0,0 STARLINK-4099,1 53146U 22083Q   22301.25001157 -.00034135  00000-0 -21348-2 0  9991,2 53146  53.2175 288.7960 0002281  39.4451  86.9674 15.08872983 16393,6917.78,95.435,541.2230000000002,538.067,0.0
53146.0,STARLINK-4099,PAYLOAD,2022-10-28 14:00:01,15.08857601,0.0002227,53.2174,287.2990000000001,36.9161,101.1798,-0.0011285,-0.00018213,0.0,0 STARLINK-4099,1 53146U 22083Q   22301.58335648 -.00018213  00000-0 -11285-2 0  9990,2 53146  53.2174 287.2990 0002227  36.9161 101.1798 15.08857601  1301,6917.8269999999975,95.436,541.232,538.151,0.0
53146.0,STARLINK-4099,PAYLOAD,2022-10-28 22:00:01,15.08849542,0.000207,53.2177,285.8014,41.0045,108.7003,-0.00048599,-8.017e-05,0.0,0 STARLINK-4099,1 53146U 22083Q   22301.91668981 -.00008017  00000-0 -48599-3 0  9996,2 53146  53.2177 285.8014 0002070  41.0045 108.7003 15.08849542 16492,6917.851,95.437,541.148,538.284,0.0
53146.0,STARLINK-4099,PAYLOAD,2022-10-29 12:00:00,15.08843412,0.0002218999999999,53.2177,283.1845,33.751999999999995,46.2087,0.00014779,2.065e-05,0.0,0 STARLINK-4099,1 53146U 22083Q   22302.50001157  .00002065  00000-0  14779-3 0  9996,2 53146  53.2177 283.1845 0002219  33.7520  46.2087 15.08843412  1308,6917.87,95.437,541.27,538.2,0.0
53146.0,STARLINK-4099,PAYLOAD,2022-10-29 22:00:01,15.08856056,0.0001998,53.2181,281.3125,38.9824,145.5429,0.00066641,0.00010338,0.0,0 STARLINK-4099,1 53146U 22083Q   22302.91668981  .00010338  00000-0  66641-3 0  9992,2 53146  53.2181 281.3125 0001998  38.9824 145.5429 15.08856056  1302,6917.831,95.437,541.078,538.314,0.0
53146.0,STARLINK-4099,PAYLOAD,2022-10-30 00:00:00,15.08877897,0.0002005,53.2182,280.9388,38.6122,238.7476,-0.002076,-0.00033211,0.0,0 STARLINK-4099,1 53146U 22083Q   22303.00001157 -.00033211  00000-0 -20760-2 0  9997,2 53146  53.2182 280.9388 0002005  38.6122 238.7476 15.08877897 16654,6917.765,95.435,541.0169999999998,538.243,0.0
53146.0,STARLINK-4099,PAYLOAD,2022-10-30 14:00:01,15.08839863,0.0002204,53.2182,278.321,36.9915,170.6459,-0.0010443,-0.0001686999999999,0.0,0 STARLINK-4099,1 53146U 22083Q   22303.58334491 -.00016870  00000-0 -10443-2 0  9999,2 53146  53.2182 278.3210 0002204  36.9915 170.6459 15.08839863  1303,6917.880999999999,95.438,541.271,538.221,0.0
53146.0,STARLINK-4099,PAYLOAD,2022-10-30 22:00:01,15.0883907,0.0002055,53.2184,276.8238,41.2721,178.0153,-0.00032283,-5.422e-05,0.0,0 STARLINK-4099,1 53146U 22083Q   22303.91668981 -.00005422  00000-0 -32283-3 0  9998,2 53146  53.2184 276.8238 0002055  41.2721 178.0153 15.08839070  1309,6917.8830000000025,95.438,541.17,538.327,0.0
53146.0,STARLINK-4099,PAYLOAD,2022-10-31 14:00:01,15.08863386,0.0002108,53.2183,273.8322,35.7082,206.687,-0.0042214,-0.00066893,0.0,0 STARLINK-4099,1 53146U 22083Q   22304.58334491 -.00066893  00000-0 -42214-2 0  9991,2 53146  53.2183 273.8322 0002108  35.7082 206.6870 15.08863386  1307,6917.809,95.436,541.132,538.216,0.0
53146.0,STARLINK-4099,PAYLOAD,2022-10-31 22:00:01,15.08835538,0.0001943999999999,53.2184,272.3351,39.7117,214.3404,0.00099915,0.00015647,0.0,0 STARLINK-4099,1 53146U 22083Q   22304.91668981  .00015647  00000-0  99915-3 0  9992,2 53146  53.2184 272.3351 0001944  39.7117 214.3404 15.08835538 16947,6917.894,95.438,541.104,538.414,0.0
53146.0,STARLINK-4099,PAYLOAD,2022-11-01 14:00:01,15.08853352,0.0002009999999999,53.218,269.3433,34.982,242.1898,-0.0011449,-0.0001847,0.0,0 STARLINK-4099,1 53146U 22083Q   22305.58334491 -.00018470  00000-0 -11449-2 0  9996,2 53146  53.2180 269.3433 0002010  34.9820 242.1898 15.08853352 17045,6917.84,95.437,541.095,538.314,0.0
53146.0,STARLINK-4099,PAYLOAD,2022-11-01 22:00:00,15.08820332,0.0001786,53.2181,267.8463,36.0734,252.6958,0.0013333,0.00020984,0.0,0 STARLINK-4099,1 53146U 22083Q   22305.91667824  .00020984  00000-0  13333-2 0  9997,2 53146  53.2181 267.8463 0001786  36.0734 252.6958 15.08820332  1305,6917.941,95.439,541.0409999999998,538.57,0.0
53146.0,STARLINK-4099,PAYLOAD,2022-11-02 14:00:01,15.08854897,0.0001939,53.2176,264.8538,35.7418,276.1942,-0.003253,-0.0005171,0.0,0 STARLINK-4099,1 53146U 22083Q   22306.58334491 -.00051710  00000-0 -32530-2 0  9995,2 53146  53.2176 264.8538 0001939  35.7418 276.1942 15.08854897  1301,6917.835,95.437,541.0409999999998,538.3580000000002,0.0
53146.0,STARLINK-4099,PAYLOAD,2022-11-02 20:34:19,15.08836328,0.0001889,53.2194,263.6241,39.4429,320.67,5.96e-05,6.6e-06,0.0,0 STARLINK-4099,1 53146U 22083Q   22306.85716986  .00000660  00000-0  59600-4 0  9993,2 53146  53.2194 263.6241 0001889  39.4429 320.6700 15.08836328 17242,6917.892,95.438,541.063,538.45,0.0
53146.0,STARLINK-4099,PAYLOAD,2022-11-03 07:42:01,15.08842772,0.000213,53.2197,261.5429,30.5697,329.5419,0.00010876,1.443e-05,0.0,0 STARLINK-4099,1 53146U 22083Q   22307.32084633  .00001443  00000-0  10876-3 0  9994,2 53146  53.2197 261.5429 0002130  30.5697 329.5419 15.08842772 16681,6917.871999999999,95.437,541.21,538.263,0.0
53146.0,STARLINK-4099,PAYLOAD,2022-11-04 05:57:24,15.08852922,0.000188,53.2187,257.3803,35.2075,324.9041,0.00019987,2.895e-05,0.0,0 STARLINK-4099,1 53146U 22083Q   22308.24819564  .00002895  00000-0  19987-3 0  9999,2 53146  53.2187 257.3803 0001880  35.2075 324.9041 15.08852922 17456,6917.840999999999,95.437,541.006,538.405,0.0
53146.0,STARLINK-4099,PAYLOAD,2022-11-05 02:37:25,15.08844226,0.0002098,53.2198,253.5146,42.7489,317.3667,6.7778e-05,7.91e-06,0.0,0 STARLINK-4099,1 53146U 22083Q   22309.10932259  .00000791  00000-0  67778-4 0  9997,2 53146  53.2198 253.5146 0002098  42.7489 317.3667 15.08844226 17582,6917.8669999999975,95.437,541.184,538.281,0.0
53146.0,STARLINK-4099,PAYLOAD,2022-11-05 04:12:48,15.08842596,0.0002096,53.2198,253.2172,41.9026,318.2126,4.6054e-05,4.45e-06,0.0,0 STARLINK-4099,1 53146U 22083Q   22309.17556395  .00000445  00000-0  46054-4 0  9997,2 53146  53.2198 253.2172 0002096  41.9026 318.2126 15.08842596 16963,6917.871999999999,95.437,541.187,538.2869999999998,0.0
53146.0,STARLINK-4099,PAYLOAD,2022-11-05 13:45:09,15.08824374,0.0002106,53.2192,251.4354,44.1638,315.9522,-0.00015302,-2.722e-05,0.0,0 STARLINK-4099,1 53146U 22083Q   22309.57302395 -.00002722  00000-0 -15302-3 0  9993,2 53146  53.2192 251.4354 0002106  44.1638 315.9522 15.08824374 17650,6917.928000000001,95.439,541.25,538.336,0.0
53146.0,STARLINK-4099,PAYLOAD,2022-11-06 02:28:14,15.08828545,0.0001788,53.2191,249.0533,39.4236,320.6886,-0.00017566,-3.082e-05,0.0,0 STARLINK-4099,1 53146U 22083Q   22310.10294407 -.00003082  00000-0 -17566-3 0  9992,2 53146  53.2191 249.0533 0001788  39.4236 320.6886 15.08828545 17107,6917.915,95.438,541.0169999999998,538.543,0.0
